[{"OBJECT_NAME":"ARCSTONE","OBJECT_ID":"2025-135N","EPOCH":"2026-03-09T21:21:29.017152","MEAN_MOTION":15.28638458,"ECCENTRICITY":0.00041199,"INCLINATION":97.4495,"RA_OF_ASC_NODE":185.9194,"ARG_OF_PERICENTER":166.7863,"MEAN_ANOMALY":193.3485,"EPHEMERIS_TYPE":0,"CLASSIFICATION_TYPE":"U","NORAD_CAT_ID":64540,"ELEMENT_SET_NO":999,"REV_AT_EPOCH":3984,"BSTAR":0.00094899777,"MEAN_MOTION_DOT":0.00026427,"MEAN_MOTION_DDOT":0},{"OBJECT_NAME":"STARLINK-36090","OBJECT_ID":"2025-281H","EPOCH":"2026-03-09T04:35:08.685600","MEAN_MOTION":15.27566656,"ECCENTRICITY":0.00013555,"INCLINATION":42.9996,"RA_OF_ASC_NODE":345.9085,"ARG_OF_PERICENTER":301.0577,"MEAN_ANOMALY":59.0141,"EPHEMERIS_TYPE":0,"CLASSIFICATION_TYPE":"U","NORAD_CAT_ID":66855,"ELEMENT_SET_NO":999,"REV_AT_EPOCH":1611,"BSTAR":0.00094453675,"MEAN_MOTION_DOT":0.0002581,"MEAN_MOTION_DDOT":0}]
